ASTRA 2F                
1 38778U 12051A   22230.86183582  .00000143  00000+0  00000+0 0  9998
2 38778   0.0836 252.0722 0003582 301.8822 111.6568  1.00272203 27109
SES-6                   
1 39172U 13026A   22229.41741204 -.00000271  00000+0  00000+0 0  9993
2 39172   0.0517 299.2857 0001963 216.9377 279.2796  1.00269982 33682
O3B FM5                 
1 39188U 13031A   22230.64314400 -.00000027  00000+0  00000+0 0  9996
2 39188   0.0564  21.5769 0002569 128.5874 209.8485  5.00115323167070
O3B FM4                 
1 39189U 13031B   22230.69920270 -.00000027  00000+0  00000+0 0  9990
2 39189   0.0557 352.5255 0002533 157.1854 210.3019  5.00115803167092
O3B FM2                 
1 39190U 13031C   22230.59078567 -.00000027  00000+0  00000+0 0  9994
2 39190   0.0582 348.0034 0002571 160.4277 211.5823  5.00116894167148
O3B PFM                 
1 39191U 13031D   22230.81690731 -.00000027  00000+0  00000+0 0  9993
2 39191   0.0532  12.6030 0002646 135.0354 212.3759  5.00115705166709
ASTRA 2E                
1 39285U 13056A   22230.86183582  .00000143  00000+0  00000+0 0  9998
2 39285   0.0628  36.8409 0002073 103.2352 165.8226  1.00270723 32415
SES-8                   
1 39460U 13071A   22229.63742723 -.00000279  00000+0  00000+0 0  9992
2 39460   0.0467 272.0451 0002328 214.7940 163.5959  1.00270309 30399
ASTRA 5B                
1 39617U 14011B   22231.07769094  .00000148  00000+0  00000+0 0  9996
2 39617   0.0580 302.2917 0004463 221.3981 223.1979  1.00276608 30857
O3B FM3                 
1 40079U 14038A   22230.87166172 -.00000027  00000+0  00000+0 0  9991
2 40079   0.0550   0.5077 0005021 140.3255 219.2013  5.00115391143088
O3B FM7                 
1 40080U 14038B   22230.81773319 -.00000027  00000+0  00000+0 0  9994
2 40080   0.0587 357.9465 0001224 190.3465 171.7030  5.00115485147910
O3B FM6                 
1 40081U 14038C   22230.44432669 -.00000027  00000+0  00000+0 0  9994
2 40081   0.0544 359.7391 0002683 148.3702 211.9049  5.00115411147858
O3B FM8                 
1 40082U 14038D   22230.09848920 -.00000027  00000+0  00000+0 0  9997
2 40082   0.0538 356.4424 0002673 147.8897 215.6836  5.00115664147957
O3B FM10                
1 40348U 14083A   22230.72418655 -.00000027  00000+0  00000+0 0  9990
2 40348   0.0498   8.3569 0002622 139.0763 212.5811  5.00115152139939
O3B FM11                
1 40349U 14083B   22230.73765620 -.00000027  00000+0  00000+0 0  9999
2 40349   0.0543   9.3531 0002318 153.0024 197.6507  5.00115396139956
O3B FM12                
1 40350U 14083C   22230.16518440 -.00000027  00000+0  00000+0 0  9994
2 40350   0.0539   8.5211 0002709 142.6528 208.8390  5.00115273139933
O3B FM9                 
1 40351U 14083D   22230.79179121 -.00000027  00000+0  00000+0 0  9993
2 40351   0.0554   9.8759 0002585 138.9105 211.2271  5.00115596140108
