[{"OBJECT_NAME":"ASTRA 2F","OBJECT_ID":"2012-051A","EPOCH":"2022-08-18T20:41:02.614848","MEAN_MOTION":1.00272203,"ECCENTRICITY":0.0003582,"INCLINATION":0.0836,"RA_OF_ASC_NODE":252.0722,"ARG_OF_PERICENTER":301.8822,"MEAN_ANOMALY":111.6568,"EPHEMERIS_TYPE":0,"CLASSIFICATION_TYPE":"U","NORAD_CAT_ID":38778,"ELEMENT_SET_NO":999,"REV_AT_EPOCH":2710,"BSTAR":0,"MEAN_MOTION_DOT":1.43e-6,"MEAN_MOTION_DDOT":0},{"OBJECT_NAME":"SES-6","OBJECT_ID":"2013-026A","EPOCH":"2022-08-17T10:01:04.400256","MEAN_MOTION":1.00269982,"ECCENTRICITY":0.0001963,"INCLINATION":0.0517,"RA_OF_ASC_NODE":299.2857,"ARG_OF_PERICENTER":216.9377,"MEAN_ANOMALY":279.2796,"EPHEMERIS_TYPE":0,"CLASSIFICATION_TYPE":"U","NORAD_CAT_ID":39172,"ELEMENT_SET_NO":999,"REV_AT_EPOCH":3368,"BSTAR":0,"MEAN_MOTION_DOT":-2.71e-6,"MEAN_MOTION_DDOT":0},{"OBJECT_NAME":"O3B FM5","OBJECT_ID":"2013-031A","EPOCH":"2022-08-18T15:26:07.641600","MEAN_MOTION":5.00115323,"ECCENTRICITY":0.0002569,"INCLINATION":0.0564,"RA_OF_ASC_NODE":21.5769,"ARG_OF_PERICENTER":128.5874,"MEAN_ANOMALY":209.8485,"EPHEMERIS_TYPE":0,"CLASSIFICATION_TYPE":"U","NORAD_CAT_ID":39188,"ELEMENT_SET_NO":999,"REV_AT_EPOCH":16707,"BSTAR":0,"MEAN_MOTION_DOT":-2.7e-7,"MEAN_MOTION_DDOT":0},{"OBJECT_NAME":"O3B FM4","OBJECT_ID":"2013-031B","EPOCH":"2022-08-18T16:46:51.113280","MEAN_MOTION":5.00115803,"ECCENTRICITY":0.0002533,"INCLINATION":0.0557,"RA_OF_ASC_NODE":352.5255,"ARG_OF_PERICENTER":157.1854,"MEAN_ANOMALY":210.3019,"EPHEMERIS_TYPE":0,"CLASSIFICATION_TYPE":"U","NORAD_CAT_ID":39189,"ELEMENT_SET_NO":999,"REV_AT_EPOCH":16709,"BSTAR":0,"MEAN_MOTION_DOT":-2.7e-7,"MEAN_MOTION_DDOT":0},{"OBJECT_NAME":"O3B FM2","OBJECT_ID":"2013-031C","EPOCH":"2022-08-18T14:10:43.881888","MEAN_MOTION":5.00116894,"ECCENTRICITY":0.0002571,"INCLINATION":0.0582,"RA_OF_ASC_NODE":348.0034,"ARG_OF_PERICENTER":160.4277,"MEAN_ANOMALY":211.5823,"EPHEMERIS_TYPE":0,"CLASSIFICATION_TYPE":"U","NORAD_CAT_ID":39190,"ELEMENT_SET_NO":999,"REV_AT_EPOCH":16714,"BSTAR":0,"MEAN_MOTION_DOT":-2.7e-7,"MEAN_MOTION_DDOT":0},{"OBJECT_NAME":"O3B PFM","OBJECT_ID":"2013-031D","EPOCH":"2022-08-18T19:36:20.791584","MEAN_MOTION":5.00115705,"ECCENTRICITY":0.0002646,"INCLINATION":0.0532,"RA_OF_ASC_NODE":12.603,"ARG_OF_PERICENTER":135.0354,"MEAN_ANOMALY":212.3759,"EPHEMERIS_TYPE":0,"CLASSIFICATION_TYPE":"U","NORAD_CAT_ID":39191,"ELEMENT_SET_NO":999,"REV_AT_EPOCH":16670,"BSTAR":0,"MEAN_MOTION_DOT":-2.7e-7,"MEAN_MOTION_DDOT":0},{"OBJECT_NAME":"ASTRA 2E","OBJECT_ID":"2013-056A","EPOCH":"2022-08-18T20:41:02.614848","MEAN_MOTION":1.00270723,"ECCENTRICITY":0.0002073,"INCLINATION":0.0628,"RA_OF_ASC_NODE":36.8409,"ARG_OF_PERICENTER":103.2352,"MEAN_ANOMALY":165.8226,"EPHEMERIS_TYPE":0,"CLASSIFICATION_TYPE":"U","NORAD_CAT_ID":39285,"ELEMENT_SET_NO":999,"REV_AT_EPOCH":3241,"BSTAR":0,"MEAN_MOTION_DOT":1.43e-6,"MEAN_MOTION_DDOT":0},{"OBJECT_NAME":"SES-8","OBJECT_ID":"2013-071A","EPOCH":"2022-08-17T15:17:53.712672","MEAN_MOTION":1.00270309,"ECCENTRICITY":0.0002328,"INCLINATION":0.0467,"RA_OF_ASC_NODE":272.0451,"ARG_OF_PERICENTER":214.794,"MEAN_ANOMALY":163.5959,"EPHEMERIS_TYPE":0,"CLASSIFICATION_TYPE":"U","NORAD_CAT_ID":39460,"ELEMENT_SET_NO":999,"REV_AT_EPOCH":3039,"BSTAR":0,"MEAN_MOTION_DOT":-2.79e-6,"MEAN_MOTION_DDOT":0},{"OBJECT_NAME":"ASTRA 5B","OBJECT_ID":"2014-011B","EPOCH":"2022-08-19T01:51:52.497216","MEAN_MOTION":1.00276608,"ECCENTRICITY":0.0004463,"INCLINATION":0.058,"RA_OF_ASC_NODE":302.2917,"ARG_OF_PERICENTER":221.3981,"MEAN_ANOMALY":223.1979,"EPHEMERIS_TYPE":0,"CLASSIFICATION_TYPE":"U","NORAD_CAT_ID":39617,"ELEMENT_SET_NO":999,"REV_AT_EPOCH":3085,"BSTAR":0,"MEAN_MOTION_DOT":1.48e-6,"MEAN_MOTION_DDOT":0},{"OBJECT_NAME":"O3B FM3","OBJECT_ID":"2014-038A","EPOCH":"2022-08-18T20:55:11.572608","MEAN_MOTION":5.00115391,"ECCENTRICITY":0.0005021,"INCLINATION":0.055,"RA_OF_ASC_NODE":0.5077,"ARG_OF_PERICENTER":140.3255,"MEAN_ANOMALY":219.2013,"EPHEMERIS_TYPE":0,"CLASSIFICATION_TYPE":"U","NORAD_CAT_ID":40079,"ELEMENT_SET_NO":999,"REV_AT_EPOCH":14308,"BSTAR":0,"MEAN_MOTION_DOT":-2.7e-7,"MEAN_MOTION_DDOT":0},{"OBJECT_NAME":"O3B FM7","OBJECT_ID":"2014-038B","EPOCH":"2022-08-18T19:37:32.147616","MEAN_MOTION":5.00115485,"ECCENTRICITY":0.0001224,"INCLINATION":0.0587,"RA_OF_ASC_NODE":357.9465,"ARG_OF_PERICENTER":190.3465,"MEAN_ANOMALY":171.703,"EPHEMERIS_TYPE":0,"CLASSIFICATION_TYPE":"U","NORAD_CAT_ID":40080,"ELEMENT_SET_NO":999,"REV_AT_EPOCH":14791,"BSTAR":0,"MEAN_MOTION_DOT":-2.7e-7,"MEAN_MOTION_DDOT":0},{"OBJECT_NAME":"O3B FM6","OBJECT_ID":"2014-038C","EPOCH":"2022-08-18T10:39:49.826016","MEAN_MOTION":5.00115411,"ECCENTRICITY":0.0002683,"INCLINATION":0.0544,"RA_OF_ASC_NODE":359.7391,"ARG_OF_PERICENTER":148.3702,"MEAN_ANOMALY":211.9049,"EPHEMERIS_TYPE":0,"CLASSIFICATION_TYPE":"U","NORAD_CAT_ID":40081,"ELEMENT_SET_NO":999,"REV_AT_EPOCH":14785,"BSTAR":0,"MEAN_MOTION_DOT":-2.7e-7,"MEAN_MOTION_DDOT":0},{"OBJECT_NAME":"O3B FM8","OBJECT_ID":"2014-038D","EPOCH":"2022-08-18T02:21:49.466880","MEAN_MOTION":5.00115664,"ECCENTRICITY":0.0002673,"INCLINATION":0.0538,"RA_OF_ASC_NODE":356.4424,"ARG_OF_PERICENTER":147.8897,"MEAN_ANOMALY":215.6836,"EPHEMERIS_TYPE":0,"CLASSIFICATION_TYPE":"U","NORAD_CAT_ID":40082,"ELEMENT_SET_NO":999,"REV_AT_EPOCH":14795,"BSTAR":0,"MEAN_MOTION_DOT":-2.7e-7,"MEAN_MOTION_DDOT":0},{"OBJECT_NAME":"O3B FM10","OBJECT_ID":"2014-083A","EPOCH":"2022-08-18T17:22:49.717920","MEAN_MOTION":5.00115152,"ECCENTRICITY":0.0002622,"INCLINATION":0.0498,"RA_OF_ASC_NODE":8.3569,"ARG_OF_PERICENTER":139.0763,"MEAN_ANOMALY":212.5811,"EPHEMERIS_TYPE":0,"CLASSIFICATION_TYPE":"U","NORAD_CAT_ID":40348,"ELEMENT_SET_NO":999,"REV_AT_EPOCH":13993,"BSTAR":0,"MEAN_MOTION_DOT":-2.7e-7,"MEAN_MOTION_DDOT":0},{"OBJECT_NAME":"O3B FM11","OBJECT_ID":"2014-083B","EPOCH":"2022-08-18T17:42:13.495680","MEAN_MOTION":5.00115396,"ECCENTRICITY":0.0002318,"INCLINATION":0.0543,"RA_OF_ASC_NODE":9.3531,"ARG_OF_PERICENTER":153.0024,"MEAN_ANOMALY":197.6507,"EPHEMERIS_TYPE":0,"CLASSIFICATION_TYPE":"U","NORAD_CAT_ID":40349,"ELEMENT_SET_NO":999,"REV_AT_EPOCH":13995,"BSTAR":0,"MEAN_MOTION_DOT":-2.7e-7,"MEAN_MOTION_DDOT":0},{"OBJECT_NAME":"O3B FM12","OBJECT_ID":"2014-083C","EPOCH":"2022-08-18T03:57:51.932160","MEAN_MOTION":5.00115273,"ECCENTRICITY":0.0002709,"INCLINATION":0.0539,"RA_OF_ASC_NODE":8.5211,"ARG_OF_PERICENTER":142.6528,"MEAN_ANOMALY":208.839,"EPHEMERIS_TYPE":0,"CLASSIFICATION_TYPE":"U","NORAD_CAT_ID":40350,"ELEMENT_SET_NO":999,"REV_AT_EPOCH":13993,"BSTAR":0,"MEAN_MOTION_DOT":-2.7e-7,"MEAN_MOTION_DDOT":0},{"OBJECT_NAME":"O3B FM9","OBJECT_ID":"2014-083D","EPOCH":"2022-08-18T19:00:10.760544","MEAN_MOTION":5.00115596,"ECCENTRICITY":0.0002585,"INCLINATION":0.0554,"RA_OF_ASC_NODE":9.8759,"ARG_OF_PERICENTER":138.9105,"MEAN_ANOMALY":211.2271,"EPHEMERIS_TYPE":0,"CLASSIFICATION_TYPE":"U","NORAD_CAT_ID":40351,"ELEMENT_SET_NO":999,"REV_AT_EPOCH":14010,"BSTAR":0,"MEAN_MOTION_DOT":-2.7e-7,"MEAN_MOTION_DDOT":0}]